NORAD_CAT_ID,OBJECT_NAME,OBJECT_TYPE,EPOCH,MEAN_MOTION,ECCENTRICITY,INCLINATION,RA_OF_ASC_NODE,ARG_OF_PERICENTER,MEAN_ANOMALY,BSTAR,MEAN_MOTION_DOT,MEAN_MOTION_DDOT,TLE_LINE0,TLE_LINE1,TLE_LINE2,SEMIMAJOR_AXIS,PERIOD,APOGEE,PERIGEE,DECAYED
51898.0,STARLINK-3597,PAYLOAD,2022-09-05 22:00:00,15.08844444,0.0001464,53.2199,348.7292,64.3861,344.6877,-0.0043533,-0.00068916,0.0,0 STARLINK-3597,1 51898U 22022AY  22248.91667824 -.00068916  00000-0 -43533-2 0  9992,2 51898  53.2199 348.7292 0001464  64.3861 344.6877 15.08844444  1305,6917.8669999999975,95.437,540.745,538.719,0.0
51898.0,STARLINK-3597,PAYLOAD,2022-09-06 06:00:00,15.08797318,0.0001453,53.2202,347.232,74.3276,346.3166,0.0026965,0.00042838,0.0,0 STARLINK-3597,1 51898U 22022AY  22249.25001157  .00042838  00000-0  26965-2 0  9994,2 51898  53.2202 347.2320 0001453  74.3276 346.3166 15.08797318 29997,6918.011,95.44,540.881,538.871,0.0
51898.0,STARLINK-3597,PAYLOAD,2022-09-06 14:00:01,15.0881415,0.0001541999999999,53.22,345.7377,66.6301,5.5691,0.00019953,2.887e-05,0.0,0 STARLINK-3597,1 51898U 22022AY  22249.58334491  .00002887  00000-0  19953-3 0  9990,2 51898  53.2200 345.7377 0001542  66.6301   5.5691 15.08814150  1308,6917.959,95.439,540.891,538.758,0.0
51898.0,STARLINK-3597,PAYLOAD,2022-09-06 22:00:00,15.08838087,0.0001459,53.2198,344.2406,67.4577,16.3024,-0.00146,-0.00023447,0.0,0 STARLINK-3597,1 51898U 22022AY  22249.91667824 -.00023447  00000-0 -14600-2 0  9996,2 51898  53.2198 344.2406 0001459  67.4577  16.3024 15.08838087 30095,6917.886,95.438,540.761,538.742,0.0
51898.0,STARLINK-3597,PAYLOAD,2022-09-07 14:00:01,15.08835485,0.0001495,53.2197,341.2492,66.9528,39.9811,0.00051711,7.950000000000001e-05,0.0,0 STARLINK-3597,1 51898U 22022AY  22250.58334491  .00007950  00000-0  51711-3 0  9996,2 51898  53.2197 341.2492 0001495  66.9528  39.9811 15.08835485 30191,6917.894,95.438,540.793,538.725,0.0
51898.0,STARLINK-3597,PAYLOAD,2022-09-07 22:00:00,15.08873859,0.0001383,53.2194,339.7519999999999,67.3496,51.173,-0.0043571999999999,-0.00069032,0.0,0 STARLINK-3597,1 51898U 22022AY  22250.91667824 -.00069032  00000-0 -43572-2 0  9998,2 51898  53.2194 339.7520 0001383  67.3496  51.1730 15.08873859  1301,6917.776999999999,95.435,540.599,538.685,0.0
51898.0,STARLINK-3597,PAYLOAD,2022-09-08 14:00:01,15.088315,0.0001409,53.2194,336.7606,63.627,78.0992,0.00098902,0.00015484,0.0,0 STARLINK-3597,1 51898U 22022AY  22251.58334491  .00015484  00000-0  98902-3 0  9991,2 51898  53.2194 336.7606 0001409  63.6270  78.0992 15.08831500  1306,6917.906,95.438,540.746,538.797,0.0
51898.0,STARLINK-3597,PAYLOAD,2022-09-08 22:00:00,15.08866419,0.0001379,53.2191,335.2633,66.1342,87.1858,-0.0037654,-0.0005976,0.0,0 STARLINK-3597,1 51898U 22022AY  22251.91667824 -.00059760  00000-0 -37654-2 0  9990,2 51898  53.2191 335.2633 0001379  66.1342  87.1858 15.08866419  1300,6917.8,95.436,540.619,538.711,0.0
51898.0,STARLINK-3597,PAYLOAD,2022-09-09 00:00:02,15.08835856,0.0001351,53.2193,334.8887,68.351,177.9428,-0.00044167,-7.309e-05,0.0,0 STARLINK-3597,1 51898U 22022AY  22252.00002315 -.00007309  00000-0 -44167-3 0  9999,2 51898  53.2193 334.8887 0001351  68.3510 177.9428 15.08835856 30415,6917.893,95.438,540.693,538.823,0.0
51898.0,STARLINK-3597,PAYLOAD,2022-09-09 14:00:01,15.08752492,0.0001298,53.2179,332.2688,54.7573,121.7472,0.0082157999999999,0.0013262,0.0,0 STARLINK-3597,1 51898U 22022AY  22252.58334491  .00132620  00000-0  82158-2 0  9999,2 51898  53.2179 332.2688 0001298  54.7573 121.7472 15.08752492  1304,6918.148,95.443,540.911,539.115,0.0
51898.0,STARLINK-3597,PAYLOAD,2022-09-09 22:00:00,15.08837969,0.0001225,53.2175,330.7705,54.0472,134.0069,-0.00013978,-2.512e-05,0.0,0 STARLINK-3597,1 51898U 22022AY  22252.91667824 -.00002512  00000-0 -13978-3 0  9998,2 51898  53.2175 330.7705 0001225  54.0472 134.0069 15.08837969  1306,6917.887,95.438,540.599,538.904,0.0
51898.0,STARLINK-3597,PAYLOAD,2022-09-10 06:00:02,15.08832703,0.0001409,53.2192,329.2778,68.1593,131.6119,0.00091081,0.00014234,0.0,0 STARLINK-3597,1 51898U 22022AY  22253.25002315  .00014234  00000-0  91081-3 0  9997,2 51898  53.2192 329.2778 0001409  68.1593 131.6119 15.08832703 30595,6917.903,95.438,540.742,538.793,0.0
51898.0,STARLINK-3597,PAYLOAD,2022-09-10 14:00:01,15.08832304,0.0001501,53.2191,327.7833,58.0897,153.2133,2.0928e-05,4.5e-07,0.0,0 STARLINK-3597,1 51898U 22022AY  22253.58334491  .00000045  00000-0  20928-4 0  9994,2 51898  53.2191 327.7833 0001501  58.0897 153.2133 15.08832304  1307,6917.904,95.438,540.807,538.731,0.0
51898.0,STARLINK-3597,PAYLOAD,2022-09-10 22:00:00,15.08829564,0.0001333,53.2191,326.2852,59.1728,163.7196,-0.0010582,-0.00017085,0.0,0 STARLINK-3597,1 51898U 22022AY  22253.91667824 -.00017085  00000-0 -10582-2 0  9997,2 51898  53.2191 326.2852 0001333  59.1728 163.7196 15.08829564 30693,6917.9119999999975,95.438,540.6990000000002,538.855,0.0
51898.0,STARLINK-3597,PAYLOAD,2022-09-11 06:00:00,15.08841833,0.0001353,53.2193,324.7891,64.2164,170.2576,0.00066219,0.00010267,0.0,0 STARLINK-3597,1 51898U 22022AY  22254.25001157  .00010267  00000-0  66219-3 0  9998,2 51898  53.2193 324.7891 0001353  64.2164 170.2576 15.08841833 30759,6917.875,95.437,540.6759999999998,538.804,0.0
51898.0,STARLINK-3597,PAYLOAD,2022-09-11 14:00:01,15.0883796,0.0001526,53.2192,323.2944,55.5863,190.4925,0.00092399,0.00014447,0.0,0 STARLINK-3597,1 51898U 22022AY  22254.58334491  .00014447  00000-0  92399-3 0  9996,2 51898  53.2192 323.2944 0001526  55.5863 190.4925 15.08837960  1309,6917.887,95.438,540.807,538.696,0.0
51898.0,STARLINK-3597,PAYLOAD,2022-09-11 22:00:00,15.08839573,0.0001474,53.2192,321.7966,60.2502,197.4325,-0.00082222,-0.0001335,0.0,0 STARLINK-3597,1 51898U 22022AY  22254.91667824 -.00013350  00000-0 -82222-3 0  9990,2 51898  53.2192 321.7966 0001474  60.2502 197.4325 15.08839573  1304,6917.882,95.438,540.766,538.727,0.0
51898.0,STARLINK-3597,PAYLOAD,2022-09-12 06:00:00,15.08848508,0.000156,53.2193,320.3001,66.1739,203.0931,-0.0020856,-0.00033335,0.0,0 STARLINK-3597,1 51898U 22022AY  22255.25001157 -.00033335  00000-0 -20856-2 0  9998,2 51898  53.2193 320.3001 0001560  66.1739 203.0931 15.08848508 30906,6917.854,95.437,540.799,538.64,0.0
51898.0,STARLINK-3597,PAYLOAD,2022-09-12 14:00:01,15.08804007,0.0001733,53.2191,318.8054,58.6386,222.2238,0.0030951999999999,0.00049268,0.0,0 STARLINK-3597,1 51898U 22022AY  22255.58334491  .00049268  00000-0  30952-2 0  9992,2 51898  53.2191 318.8054 0001733  58.6386 222.2238 15.08804007  1301,6917.99,95.44,541.054,538.6569999999998,0.0
51898.0,STARLINK-3597,PAYLOAD,2022-09-12 22:00:00,15.08842936,0.0001607,53.2191,317.3075,63.3854,229.0558,-6.0328e-05,-1.248e-05,0.0,0 STARLINK-3597,1 51898U 22022AY  22255.91667824 -.00001248  00000-0 -60328-4 0  9998,2 51898  53.2191 317.3075 0001607  63.3854 229.0558 15.08842936  1304,6917.871,95.437,540.8480000000002,538.625,0.0
51898.0,STARLINK-3597,PAYLOAD,2022-09-13 14:00:01,15.08824322,0.000178,53.2186,314.3162,60.2414,255.4,0.0017679,0.00027948,0.0,0 STARLINK-3597,1 51898U 22022AY  22256.58334491  .00027948  00000-0  17679-2 0  9995,2 51898  53.2186 314.3162 0001780  60.2414 255.4000 15.08824322  1306,6917.928000000001,95.439,541.025,538.562,0.0
51898.0,STARLINK-3597,PAYLOAD,2022-09-13 22:00:00,15.08814737,0.0001591,53.2187,312.8179,64.7678,262.4525,-5.931600000000001e-05,-1.231e-05,0.0,0 STARLINK-3597,1 51898U 22022AY  22256.91667824 -.00001231  00000-0 -59316-4 0  9996,2 51898  53.2187 312.8179 0001591  64.7678 262.4525 15.08814737  1308,6917.958000000001,95.439,540.923,538.722,0.0
51898.0,STARLINK-3597,PAYLOAD,2022-09-14 06:00:00,15.08864051,0.0001616,53.2188,311.3221,67.6223,271.1831,-0.003371,-0.00053574,0.0,0 STARLINK-3597,1 51898U 22022AY  22257.25001157 -.00053574  00000-0 -33710-2 0  9990,2 51898  53.2188 311.3221 0001616  67.6223 271.1831 15.08864051 31200,6917.807,95.436,540.79,538.554,0.0
51898.0,STARLINK-3597,PAYLOAD,2022-09-14 14:00:01,15.08831477,0.0001703,53.2182,309.8257,60.1557,290.2144,-0.00023584,-4.039e-05,0.0,0 STARLINK-3597,1 51898U 22022AY  22257.58334491 -.00004039  00000-0 -23584-3 0  9997,2 51898  53.2182 309.8257 0001703  60.1557 290.2144 15.08831477  1303,6917.906,95.438,540.95,538.5930000000002,0.0
51898.0,STARLINK-3597,PAYLOAD,2022-09-14 22:00:00,15.08791779,0.0001631999999999,53.218,308.3258,67.1386,294.8272,0.0038272,0.00061069,0.0,0 STARLINK-3597,1 51898U 22022AY  22257.91667824  .00061069  00000-0  38272-2 0  9996,2 51898  53.2180 308.3258 0001632  67.1386 294.8272 15.08791779  1306,6918.028,95.441,541.0219999999998,538.764,0.0
51898.0,STARLINK-3597,PAYLOAD,2022-09-15 14:00:01,15.08808282,0.0001802,53.2179,305.3381,62.0877,323.09,0.0032738,0.00052155,0.0,0 STARLINK-3597,1 51898U 22022AY  22258.58334491  .00052155  00000-0  32738-2 0  9998,2 51898  53.2179 305.3381 0001802  62.0877 323.0900 15.08808282  1307,6917.977,95.44,541.089,538.596,0.0
51898.0,STARLINK-3597,PAYLOAD,2022-09-15 16:00:00,15.08828024,0.0001791,53.2176,304.9636,61.3654,56.701,0.0013491,0.00021241,0.0,0 STARLINK-3597,1 51898U 22022AY  22258.66667824  .00021241  00000-0  13491-2 0  9993,2 51898  53.2176 304.9636 0001791  61.3654  56.7010 15.08828024  1302,6917.917,95.438,541.021,538.543,0.0
51898.0,STARLINK-3597,PAYLOAD,2022-09-16 12:08:46,15.08841239,0.0001821,53.2183,301.1951,65.4169,294.7013,0.00010232,1.341e-05,0.0,0 STARLINK-3597,1 51898U 22022AY  22259.50609649  .00001341  00000-0  10232-3 0  9998,2 51898  53.2183 301.1951 0001821  65.4169 294.7013 15.08841239 31548,6917.877,95.437,541.001,538.482,0.0
51898.0,STARLINK-3597,PAYLOAD,2022-09-16 20:05:43,15.0882788,0.00018,53.2183,299.7079,67.04899999999999,293.0691,-1.0258e-05,-4.51e-06,0.0,0 STARLINK-3597,1 51898U 22022AY  22259.83730524 -.00000451  00000-0 -10258-4 0  9993,2 51898  53.2183 299.7079 0001800  67.0490 293.0691 15.08827880 31598,6917.917,95.438,541.028,538.5369999999998,0.0
